[{"OBJECT_NAME":"ONEWEB-0546","OBJECT_ID":"2023-043C","EPOCH":"2026-03-13T10:03:57.735936","MEAN_MOTION":13.16603054,"ECCENTRICITY":0.00016707,"INCLINATION":87.9012,"RA_OF_ASC_NODE":247.8175,"ARG_OF_PERICENTER":73.4365,"MEAN_ANOMALY":286.695,"EPHEMERIS_TYPE":0,"CLASSIFICATION_TYPE":"U","NORAD_CAT_ID":56048,"ELEMENT_SET_NO":999,"REV_AT_EPOCH":14636,"BSTAR":0.002520514,"MEAN_MOTION_DOT":9.77e-6,"MEAN_MOTION_DDOT":0},{"OBJECT_NAME":"ONEWEB-0547","OBJECT_ID":"2023-043D","EPOCH":"2026-03-13T11:49:51.080448","MEAN_MOTION":13.21824287,"ECCENTRICITY":0.00017642,"INCLINATION":87.9165,"RA_OF_ASC_NODE":263.051,"ARG_OF_PERICENTER":93.6734,"MEAN_ANOMALY":266.4601,"EPHEMERIS_TYPE":0,"CLASSIFICATION_TYPE":"U","NORAD_CAT_ID":56049,"ELEMENT_SET_NO":999,"REV_AT_EPOCH":14558,"BSTAR":7.715787e-5,"MEAN_MOTION_DOT":4.5e-7,"MEAN_MOTION_DDOT":0},{"OBJECT_NAME":"ONEWEB-0548","OBJECT_ID":"2023-043E","EPOCH":"2026-03-12T23:42:42.704064","MEAN_MOTION":13.16592507,"ECCENTRICITY":0.0001223,"INCLINATION":87.9004,"RA_OF_ASC_NODE":247.9031,"ARG_OF_PERICENTER":105.2232,"MEAN_ANOMALY":254.9035,"EPHEMERIS_TYPE":0,"CLASSIFICATION_TYPE":"U","NORAD_CAT_ID":56050,"ELEMENT_SET_NO":999,"REV_AT_EPOCH":14630,"BSTAR":5.6837666e-5,"MEAN_MOTION_DOT":3.5e-7,"MEAN_MOTION_DDOT":0},{"OBJECT_NAME":"ONEWEB-0549","OBJECT_ID":"2023-043F","EPOCH":"2026-03-13T11:39:11.499264","MEAN_MOTION":13.21826843,"ECCENTRICITY":0.00019064,"INCLINATION":87.916,"RA_OF_ASC_NODE":263.0643,"ARG_OF_PERICENTER":93.6848,"MEAN_ANOMALY":266.4504,"EPHEMERIS_TYPE":0,"CLASSIFICATION_TYPE":"U","NORAD_CAT_ID":56051,"ELEMENT_SET_NO":999,"REV_AT_EPOCH":14558,"BSTAR":7.1275803e-5,"MEAN_MOTION_DOT":4.2e-7,"MEAN_MOTION_DDOT":0},{"OBJECT_NAME":"ONEWEB-0550","OBJECT_ID":"2023-043G","EPOCH":"2026-03-13T02:15:12.489984","MEAN_MOTION":13.21824911,"ECCENTRICITY":0.00015242,"INCLINATION":87.9164,"RA_OF_ASC_NODE":263.138,"ARG_OF_PERICENTER":93.6391,"MEAN_ANOMALY":266.4917,"EPHEMERIS_TYPE":0,"CLASSIFICATION_TYPE":"U","NORAD_CAT_ID":56052,"ELEMENT_SET_NO":999,"REV_AT_EPOCH":14553,"BSTAR":0.0002891596,"MEAN_MOTION_DOT":1.32e-6,"MEAN_MOTION_DDOT":0},{"OBJECT_NAME":"ONEWEB-0551","OBJECT_ID":"2023-043H","EPOCH":"2026-03-13T13:13:41.633184","MEAN_MOTION":13.15548333,"ECCENTRICITY":0.00019373,"INCLINATION":87.8932,"RA_OF_ASC_NODE":278.3235,"ARG_OF_PERICENTER":92.3142,"MEAN_ANOMALY":267.8211,"EPHEMERIS_TYPE":0,"CLASSIFICATION_TYPE":"U","NORAD_CAT_ID":56053,"ELEMENT_SET_NO":999,"REV_AT_EPOCH":14382,"BSTAR":0.00029264652,"MEAN_MOTION_DOT":1.23e-6,"MEAN_MOTION_DDOT":0},{"OBJECT_NAME":"ONEWEB-0552","OBJECT_ID":"2023-043J","EPOCH":"2026-03-13T02:08:06.840384","MEAN_MOTION":13.21826145,"ECCENTRICITY":0.00017287,"INCLINATION":87.9161,"RA_OF_ASC_NODE":263.1473,"ARG_OF_PERICENTER":100.9496,"MEAN_ANOMALY":259.1832,"EPHEMERIS_TYPE":0,"CLASSIFICATION_TYPE":"U","NORAD_CAT_ID":56054,"ELEMENT_SET_NO":999,"REV_AT_EPOCH":14553,"BSTAR":0.0001743525,"MEAN_MOTION_DOT":8.5e-7,"MEAN_MOTION_DDOT":0},{"OBJECT_NAME":"ONEWEB-0553","OBJECT_ID":"2023-043K","EPOCH":"2026-03-13T10:13:05.802240","MEAN_MOTION":13.16593915,"ECCENTRICITY":0.00014333,"INCLINATION":87.9007,"RA_OF_ASC_NODE":247.8188,"ARG_OF_PERICENTER":84.1692,"MEAN_ANOMALY":275.9602,"EPHEMERIS_TYPE":0,"CLASSIFICATION_TYPE":"U","NORAD_CAT_ID":56055,"ELEMENT_SET_NO":999,"REV_AT_EPOCH":14637,"BSTAR":-0.0001241876,"MEAN_MOTION_DOT":-3.5e-7,"MEAN_MOTION_DDOT":0},{"OBJECT_NAME":"ONEWEB-0554","OBJECT_ID":"2023-043L","EPOCH":"2026-03-13T09:54:51.292224","MEAN_MOTION":13.16594095,"ECCENTRICITY":0.00013605,"INCLINATION":87.9007,"RA_OF_ASC_NODE":247.8316,"ARG_OF_PERICENTER":100.9755,"MEAN_ANOMALY":259.1529,"EPHEMERIS_TYPE":0,"CLASSIFICATION_TYPE":"U","NORAD_CAT_ID":56056,"ELEMENT_SET_NO":999,"REV_AT_EPOCH":14635,"BSTAR":8.3504488e-5,"MEAN_MOTION_DOT":4.5e-7,"MEAN_MOTION_DDOT":0},{"OBJECT_NAME":"ONEWEB-0555","OBJECT_ID":"2023-043M","EPOCH":"2026-03-13T10:49:34.700448","MEAN_MOTION":13.16593687,"ECCENTRICITY":0.00014657,"INCLINATION":87.9007,"RA_OF_ASC_NODE":247.8087,"ARG_OF_PERICENTER":77.4231,"MEAN_ANOMALY":282.7064,"EPHEMERIS_TYPE":0,"CLASSIFICATION_TYPE":"U","NORAD_CAT_ID":56057,"ELEMENT_SET_NO":999,"REV_AT_EPOCH":14636,"BSTAR":-3.719745e-6,"MEAN_MOTION_DOT":1.1e-7,"MEAN_MOTION_DDOT":0},{"OBJECT_NAME":"ONEWEB-0557","OBJECT_ID":"2023-043N","EPOCH":"2026-03-13T00:13:28.689312","MEAN_MOTION":13.1659397,"ECCENTRICITY":4.497e-5,"INCLINATION":87.9007,"RA_OF_ASC_NODE":247.9085,"ARG_OF_PERICENTER":56.5008,"MEAN_ANOMALY":303.6166,"EPHEMERIS_TYPE":0,"CLASSIFICATION_TYPE":"U","NORAD_CAT_ID":56058,"ELEMENT_SET_NO":999,"REV_AT_EPOCH":14630,"BSTAR":0.00029136246,"MEAN_MOTION_DOT":1.24e-6,"MEAN_MOTION_DDOT":0},{"OBJECT_NAME":"ONEWEB-0558","OBJECT_ID":"2023-043P","EPOCH":"2026-03-13T11:03:38.328192","MEAN_MOTION":13.21826734,"ECCENTRICITY":0.00021819,"INCLINATION":87.9162,"RA_OF_ASC_NODE":263.0659,"ARG_OF_PERICENTER":93.1877,"MEAN_ANOMALY":266.9507,"EPHEMERIS_TYPE":0,"CLASSIFICATION_TYPE":"U","NORAD_CAT_ID":56059,"ELEMENT_SET_NO":999,"REV_AT_EPOCH":14559,"BSTAR":0.00012769105,"MEAN_MOTION_DOT":6.6e-7,"MEAN_MOTION_DDOT":0},{"OBJECT_NAME":"ONEWEB-0559","OBJECT_ID":"2023-043Q","EPOCH":"2026-03-13T01:42:01.725984","MEAN_MOTION":13.21824452,"ECCENTRICITY":0.00018696,"INCLINATION":87.9164,"RA_OF_ASC_NODE":263.1373,"ARG_OF_PERICENTER":99.9833,"MEAN_ANOMALY":260.1512,"EPHEMERIS_TYPE":0,"CLASSIFICATION_TYPE":"U","NORAD_CAT_ID":56060,"ELEMENT_SET_NO":999,"REV_AT_EPOCH":14555,"BSTAR":0.0001650411,"MEAN_MOTION_DOT":8.1e-7,"MEAN_MOTION_DDOT":0},{"OBJECT_NAME":"ONEWEB-0566","OBJECT_ID":"2023-043R","EPOCH":"2026-03-13T12:26:34.334016","MEAN_MOTION":13.21827019,"ECCENTRICITY":0.00019582,"INCLINATION":87.9162,"RA_OF_ASC_NODE":263.0469,"ARG_OF_PERICENTER":96.9194,"MEAN_ANOMALY":263.2162,"EPHEMERIS_TYPE":0,"CLASSIFICATION_TYPE":"U","NORAD_CAT_ID":56061,"ELEMENT_SET_NO":999,"REV_AT_EPOCH":14559,"BSTAR":2.1925727e-5,"MEAN_MOTION_DOT":2.2e-7,"MEAN_MOTION_DDOT":0},{"OBJECT_NAME":"ONEWEB-0568","OBJECT_ID":"2023-043S","EPOCH":"2026-03-13T09:45:43.874784","MEAN_MOTION":13.16596569,"ECCENTRICITY":0.00015288,"INCLINATION":87.901,"RA_OF_ASC_NODE":247.8193,"ARG_OF_PERICENTER":87.0008,"MEAN_ANOMALY":273.1298,"EPHEMERIS_TYPE":0,"CLASSIFICATION_TYPE":"U","NORAD_CAT_ID":56062,"ELEMENT_SET_NO":999,"REV_AT_EPOCH":14637,"BSTAR":0.00037332992,"MEAN_MOTION_DOT":1.56e-6,"MEAN_MOTION_DDOT":0},{"OBJECT_NAME":"ONEWEB-0574","OBJECT_ID":"2023-043T","EPOCH":"2026-03-13T06:50:05.790336","MEAN_MOTION":13.21826606,"ECCENTRICITY":0.00014582,"INCLINATION":87.9174,"RA_OF_ASC_NODE":263.0872,"ARG_OF_PERICENTER":93.2717,"MEAN_ANOMALY":266.8584,"EPHEMERIS_TYPE":0,"CLASSIFICATION_TYPE":"U","NORAD_CAT_ID":56063,"ELEMENT_SET_NO":999,"REV_AT_EPOCH":14560,"BSTAR":0.00013016252,"MEAN_MOTION_DOT":6.7e-7,"MEAN_MOTION_DDOT":0},{"OBJECT_NAME":"ONEWEB-0575","OBJECT_ID":"2023-043U","EPOCH":"2026-03-13T00:29:26.163744","MEAN_MOTION":13.1659431,"ECCENTRICITY":0.00011827,"INCLINATION":87.9006,"RA_OF_ASC_NODE":247.894,"ARG_OF_PERICENTER":90.7909,"MEAN_ANOMALY":269.3358,"EPHEMERIS_TYPE":0,"CLASSIFICATION_TYPE":"U","NORAD_CAT_ID":56064,"ELEMENT_SET_NO":999,"REV_AT_EPOCH":14631,"BSTAR":0.0003208949,"MEAN_MOTION_DOT":1.36e-6,"MEAN_MOTION_DDOT":0}]
