ONEWEB-0546             
1 56048U 23043C   26072.41941824  .00000977  00000+0  25205-2 0  9993
2 56048  87.9012 247.8175 0001670  73.4365 286.6950 13.16603054146363
ONEWEB-0547             
1 56049U 23043D   26072.49295232  .00000045  00000+0  77158-4 0  9999
2 56049  87.9165 263.0510 0001764  93.6734 266.4601 13.21824287145585
ONEWEB-0548             
1 56050U 23043E   26071.98799426  .00000035  00000+0  56838-4 0  9999
2 56050  87.9004 247.9031 0001223 105.2232 254.9035 13.16592507146306
ONEWEB-0549             
1 56051U 23043F   26072.48554976  .00000042  00000+0  71276-4 0  9996
2 56051  87.9160 263.0643 0001906  93.6848 266.4504 13.21826843145586
ONEWEB-0550             
1 56052U 23043G   26072.09389456  .00000132  00000+0  28916-3 0  9995
2 56052  87.9164 263.1380 0001524  93.6391 266.4917 13.21824911145536
ONEWEB-0551             
1 56053U 23043H   26072.55117631  .00000123  00000+0  29265-3 0  9999
2 56053  87.8932 278.3235 0001937  92.3142 267.8211 13.15548333143820
ONEWEB-0552             
1 56054U 23043J   26072.08896806  .00000085  00000+0  17435-3 0  9999
2 56054  87.9161 263.1473 0001728 100.9496 259.1832 13.21826145145538
ONEWEB-0553             
1 56055U 23043K   26072.42576160 -.00000035  00000+0 -12419-3 0  9990
2 56055  87.9007 247.8188 0001433  84.1692 275.9602 13.16593915146378
ONEWEB-0554             
1 56056U 23043L   26072.41309366  .00000045  00000+0  83504-4 0  9995
2 56056  87.9007 247.8316 0001360 100.9755 259.1529 13.16594095146358
ONEWEB-0555             
1 56057U 23043M   26072.45109607  .00000011  00000+0 -37197-5 0  9998
2 56057  87.9007 247.8087 0001465  77.4231 282.7064 13.16593687146360
ONEWEB-0557             
1 56058U 23043N   26072.00935983  .00000124  00000+0  29136-3 0  9990
2 56058  87.9007 247.9085 0000449  56.5008 303.6166 13.16593970146306
ONEWEB-0558             
1 56059U 23043P   26072.46086028  .00000066  00000+0  12769-3 0  9997
2 56059  87.9162 263.0659 0002181  93.1877 266.9507 13.21826734145594
ONEWEB-0559             
1 56060U 23043Q   26072.07085331  .00000081  00000+0  16504-3 0  9990
2 56060  87.9164 263.1373 0001869  99.9833 260.1512 13.21824452145553
ONEWEB-0566             
1 56061U 23043R   26072.51845294  .00000022  00000+0  21926-4 0  9992
2 56061  87.9162 263.0469 0001958  96.9194 263.2162 13.21827019145594
ONEWEB-0568             
1 56062U 23043S   26072.40675781  .00000156  00000+0  37333-3 0  9999
2 56062  87.9010 247.8193 0001528  87.0008 273.1298 13.16596569146373
ONEWEB-0574             
1 56063U 23043T   26072.28478924  .00000067  00000+0  13016-3 0  9999
2 56063  87.9174 263.0872 0001458  93.2717 266.8584 13.21826606145603
ONEWEB-0575             
1 56064U 23043U   26072.02044171  .00000136  00000+0  32089-3 0  9993
2 56064  87.9006 247.8940 0001182  90.7909 269.3358 13.16594310146317
